#dP2021 10 13  0  0  0.00000000     289 d+D   IGb14 FIT AIUB
## 2179 259200.00000000   300.00000000 59500 0.0000000000000
+  117   G01G02G03G04G05G06G07G08G09G10G11G12G13G14G15G16G17
+        G18G19G20G21G22G23G24G25G26G27G28G29G30G31G32R01R02
+        R03R04R05R07R08R09R11R12R13R14R15R16R17R18R19R20R21
+        R22R24E01E02E03E04E05E07E08E09E11E12E13E14E15E18E19
+        E21E24E25E26E27E30E31E33E36C06C07C08C09C10C11C12C13
+        C14C16C19C20C21C22C23C24C25C26C27C28C29C30C32C33C34
+        C35C36C37C38C39C40C41C42C43C44C45C46J01J02J03  0  0
++         5  5  5  5  5  5  5  5  5  5  5  5  5  5  5  5  5
++         5  5  5  5  5  5  5  5  5  5  5  5  5  5  5  5  5
++         5  5  5  5  5  5  5  5  5  5  5  5  5  5  6  7  5
++         5  5  5  5  5  5  5  5  5  5  5  5  5  5  5  5  5
++         5  5  5  5  5  5  5  5  5  5  5  5  5  5  5  5  5
++         5  5  5  5  5  5  5  5  5  5  5  5  5  5  5  5  5
++         5  5  5  5  5  5  5  5  5  5  5  5  5  5  5  0  0
%c M  cc GPS ccc cccc cccc cccc cccc ccccc ccccc ccccc ccccc
%c cc cc ccc ccc cccc cccc cccc cccc ccccc ccccc ccccc ccccc
%f  1.2500000  1.025000000  0.00000000000  0.000000000000000
%f  0.0000000  0.000000000  0.00000000000  0.000000000000000
%i    0    0    0    0      0      0      0      0         0
%i    0    0    0    0      0      0      0      0         0
/* Center for Orbit Determination in Europe (CODE)                              
/* MGEX orbits and clocks for year-day 2021-2860                                
/* Middle day of a 3-day long-arc multi-GNSS solution                           
/* Systems considered: GPS/GLONASS/Galileo/BeiDou/QZSS                          
/* Product reference - DOI 10.7892/boris.75882.3                                
/* PCV:IGS14      OL/AL:FES2014b NONE     YN ORB:CoN CLK:CoN                    
*  2021 10 13 18 35  0.00000000
PG01 -13134.509240  15301.623744  16830.599968    540.328884
PG02  13749.682745   8791.162677 -20286.105444   -637.262280
PG03 -22925.984461  12791.311080  -3761.343512   -323.683686
PG04 -14763.771951   6981.976043 -20957.235555   -203.685404
PG05  24429.340653  -3959.804608 -10015.582098    -57.550448
PG06   6646.901663  21673.268408 -13731.141414     93.900832
PG07  -5808.564033  25294.158536  -3855.548259    261.853569
PG08 -21853.117632  -2766.097932  15054.581399    -39.979420
PG09  -3432.586658  15899.625805 -21063.853422   -361.793950
PG10  -2410.078514 -15195.230704  21740.582186   -223.210546
PG11  12702.410101  10994.005450 -20587.713920     21.169947
PG12  24106.038498 -10639.564865  -2944.956346   -111.058316
PG13  21772.204915  11265.349498  10264.045221    199.100679
PG14   1802.313658  15564.276349  21440.370534    -18.226402
PG15  22089.276697      3.702045  14590.743603   -114.204771
PG16 -23446.784751  -1613.603340 -13060.793876   -406.483283
PG17   8874.288152  20438.144080  14881.493822    518.678139
PG18   5333.694804 -25826.192910  -2694.943342    310.664465
PG19  15996.368212  20314.411089   6173.237186     65.418719
PG20  18671.475400   4104.045131 -18354.776468    518.659047
PG21 -15264.450512   6239.636616  21404.365508    147.442871
PG22 -24211.423181   9519.262471   4951.812869   -490.115256
PG23  10165.778981 -17694.650515  16934.345858     45.563006
PG24  14452.622502 -10974.069264  18990.336568    252.937303
PG25  17188.313076 -16517.898101 -11684.074249    223.858989
PG26 -14146.452369  -9649.720127 -20426.691413    144.509405
PG27 -23152.852187 -11636.705554   6481.287101   -205.770811
PG28   8818.915161  12934.397951  21980.531522    483.203580
PG29   7473.498724 -12915.784863 -22008.486170   -425.738982
PG30   1586.467007  25516.261083   6798.024542   -482.032559
PG31  -8249.094863 -19830.684098 -15411.616646   -144.759968
PG32 -13308.468844 -19927.263564  11764.453124     -9.836724
PR01  -5332.890778 -11539.611347  22106.822252     86.622037
PR02 -22617.871295  -8123.079714   8681.549133    496.517591
PR03 -23979.797616    173.604094  -8744.042161     44.634591
PR04 -11829.349280   8009.150192 -21115.908403    109.216789
PR05   6769.727652  11508.586980 -21725.037339     80.620487
PR07  23652.685045   -565.578140   9499.089017    -40.670492
PR08  11717.336111  -8206.389322  21159.733053    -61.487868
PR09  10759.510778   4483.139753  22715.237479     18.072717
PR11  15173.388861 -20426.969028  -1861.988014     50.001829
PR12   3361.636028 -17706.854058 -18010.198437    269.777212
PR13  -9888.089170  -5206.669339 -22938.918982    -62.067386
PR14 -17971.950212  11258.276689 -14146.122063     69.850477
PR15 -15122.103921  20381.561959   2589.202963    100.860061
PR16  -1935.757829  17317.416113  18668.581468    -23.124176
PR17 -11182.259309   -268.682424  22928.999614    466.110600
PR18  -3484.266350  16094.071618  19480.432937     93.643002
PR19   4921.054329  24147.090898   6616.111689   -163.006860
PR20  12139.831789  18099.447361 -13221.404147    -57.510820
PR21  10703.461264   -989.313113 -23133.990343   -246.525638
PR22   2942.442602 -16933.827593 -18897.119127   -138.725081
PR24 -12860.728610 -17234.162160  13718.369155     62.539179
PE01 -14523.571998  21139.570024  14792.635701   -494.768312
PE02  14389.000458 -21134.587307 -14892.824133    253.243846
PE03   3724.020858 -17071.780947  23883.261223   -484.761291
PE04  16363.217094  19950.273950 -14506.904258   -877.053998
PE05  21971.770344  -4120.683588  19398.497421   -242.027120
PE07 -27200.399484 -11070.205619  -3674.522460   -595.668477
PE08 -16820.813109 -19733.063569  14261.550155   5922.186920
PE09  27274.376153  10849.494301   3873.670552   5499.410150
PE11  15586.381049  10186.922659 -23018.134430   5271.413690
PE12   7492.069794  27123.474185  -9178.986932   4962.392880
PE13 -15445.959590 -10726.438170  22859.675988    422.562422
PE14 -19276.152037  -1728.692618  13388.234156  -1603.730340
PE15  -7529.856846 -27116.416499   9167.150748    786.953662
PE18  24257.705069  -2529.386557 -21530.527505  -1761.393610
PE19  -6265.264424  15809.190197 -24229.358377    401.345466
PE21 -25678.238063  14523.618365  -2444.963533   -693.440258
PE24  22009.562838   1875.533867  19689.464427  -1169.264500
PE25  25740.926758 -14359.796363   2698.808700   -549.921576
PE26 -14136.544081  12948.836810  22559.986292   1233.768710
PE27 -22612.049509   -830.720959 -19077.051847   -141.506376
PE30  -4999.699454 -16314.414287 -24184.381190   2543.114690
PE31   6265.938893  15597.203803  24380.936298   -486.734217
PE33  -4806.361751  27484.009958   9895.143251   -463.789378
PE36  14248.896497 -11895.013579 -23053.894249   -275.539939
PC06  -1255.068053  32961.721445 -26176.184646    330.021868
PC07 -15561.799742  26384.762805  28938.764068   -210.567989
PC08 -14913.674687  39101.106023  -5788.942612   -867.892544
PC09   5496.918784  36696.945769 -19262.982176   -181.703539
PC10  -6019.318063  27258.839366  31776.976886      6.362709
PC11  -5602.103770  17812.440922  20819.923042    629.089081
PC12 -16809.454536    260.506406  22304.887491    740.015429
PC13  -9454.421123  39450.721685 -11914.182833    440.909716
PC14 -15446.666346  13455.652257 -18913.035214    588.373059
PC16  -3815.562243  30523.795552 -28596.638375   -765.818217
PC19   4735.764795 -15697.854795  22597.932454    949.139486
PC20  22318.880590  -9846.115384  13580.104051   -793.686755
PC21 -27497.244307  -2301.202017   4112.789590   -931.869807
PC22 -16208.694138 -12688.406053  18823.555349   -957.711134
PC23   6536.572860  18043.872502  20271.992156   -969.817245
PC24 -18738.085346  17718.538337 -10700.560700   -972.171973
PC25  -7532.150542  25800.486079   7549.009421   -840.598582
PC26 -17942.532982   1278.260374 -21349.600370    836.582397
PC27  19499.606336   9281.315710 -17686.576762    612.564611
PC28  15173.253404  23339.214301  -2040.574703    -15.323899
PC29  -2805.970685 -23525.100082 -14748.265705    459.977665
PC30  12426.320987 -10012.586083 -22897.242324    483.314555
PC32  27514.823036   2124.568416  -4158.467650   -965.070461
PC33  -4732.394054  15739.637372 -22554.786322   -968.206788
PC34 -11919.232090  10808.658150  22790.771140   -560.675339
PC35 -15771.507375 -22982.863375   1615.105417    -47.968407
PC36   8457.477170 -25607.310351  -7133.111180   -778.156377
PC37  17590.649844    273.694087  21678.449781   -874.388160
PC38 -18998.146457  37657.505858   2621.263732    181.978534
PC39  -7696.534384  26513.479065 -31832.244246     33.557795
PC40 -21539.652470  19996.708839  30174.353418    208.113819
PC41  15919.524233  12789.847447 -18975.323588   -923.812231
PC42 -22902.002160   9418.027252 -12820.714822   -961.746676
PC43   2152.310263  23341.609921  15124.309568   -958.141247
PC44 -19922.326269  -8803.878567  17452.219060    430.162574
PC45  -6619.153667 -17810.365430 -20420.672172    572.886321
PC46  18338.684134 -18629.469400   9720.238872     41.263159
PJ01 -30834.273238  14627.862580 -20206.113720    172.932629
PJ02 -29484.960687  30066.773593   7908.703780     -3.448986
PJ03 -25723.834323  23464.328931  28850.549310     -3.736978
EOF
